{"type": "FeatureCollection", "features": [ {"type": "Feature", "properties": {"norad_id": 66496, "name": "STARLINK-35909", "group": "last-30-days", "lat": -31.973392107691094, "lon": -31.575350987521077, "alt_km": 417.68188814458426, "timestamp": "2025-12-15T22:44:27.659160+00:00", "meta": {"OBJECT_NAME": "STARLINK-35909", "OBJECT_ID": "2025-263M", "EPOCH": "2025-12-15T07:50:13.839648", "MEAN_MOTION": 15.5064103, "ECCENTRICITY": 3.782e-05, "INCLINATION": 42.9953, "RA_OF_ASC_NODE": 109.9926, "ARG_OF_PERICENTER": 36.5555, "MEAN_ANOMALY": 323.5331, "EPHEMERIS_TYPE": 0, "CLASSIFICATION_TYPE": "U", "NORAD_CAT_ID": 66496, "ELEMENT_SET_NO": 999, "REV_AT_EPOCH": 596, "BSTAR": 0.0011179434, "MEAN_MOTION_DOT": 0.00065943, "MEAN_MOTION_DDOT": 0}, "tle": {"line1": "1 66496U 25263M   25349.32654907  .00065943  00000+0  11179-2 0  9995", "line2": "2 66496  42.9953 109.9926 0000378  36.5555 323.5331 15.50641030  5963"}}, "geometry": {"type": "Point", "coordinates": [-31.575350987521077, -31.973392107691094]}}, {"type": "Feature", "properties": {"norad_id": 66497, "name": "STARLINK-35899", "group": "last-30-days", "lat": -32.92525696933086, "lon": -29.621991633510547, "alt_km": 417.7463623560461, "timestamp": "2025-12-15T22:44:27.659170+00:00", "meta": {"OBJECT_NAME": "STARLINK-35899", "OBJECT_ID": "2025-263N", "EPOCH": "2025-12-15T07:49:44.230368", "MEAN_MOTION": 15.50641427, "ECCENTRICITY": 3.601e-05, "INCLINATION": 42.9982, "RA_OF_ASC_NODE": 109.99, "ARG_OF_PERICENTER": 41.7635, "MEAN_ANOMALY": 318.3253, "EPHEMERIS_TYPE": 0, "CLASSIFICATION_TYPE": "U", "NORAD_CAT_ID": 66497, "ELEMENT_SET_NO": 999, "REV_AT_EPOCH": 596, "BSTAR": 0.0010296928, "MEAN_MOTION_DOT": 0.0006067, "MEAN_MOTION_DDOT": 0}, "tle": {"line1": "1 66497U 25263N   25349.32620637  .00060670  00000+0  10297-2 0  9991", "line2": "2 66497  42.9982 109.9900 0000360  41.7635 318.3253 15.50641427  5961"}}, "geometry": {"type": "Point", "coordinates": [-29.621991633510547, -32.92525696933086]}}, {"type": "Feature", "properties": {"norad_id": 66498, "name": "STARLINK-35907", "group": "last-30-days", "lat": 22.581935050928763, "lon": 133.343265641841, "alt_km": 440.62794610465335, "timestamp": "2025-12-15T22:44:27.659180+00:00", "meta": {"OBJECT_NAME": "STARLINK-35907", "OBJECT_ID": "2025-263P", "EPOCH": "2025-12-15T08:35:25.329984", "MEAN_MOTION": 15.40725968, "ECCENTRICITY": 9.304e-05, "INCLINATION": 43.0017, "RA_OF_ASC_NODE": 110.2368, "ARG_OF_PERICENTER": 267.6533, "MEAN_ANOMALY": 92.4217, "EPHEMERIS_TYPE": 0, "CLASSIFICATION_TYPE": "U", "NORAD_CAT_ID": 66498, "ELEMENT_SET_NO": 999, "REV_AT_EPOCH": 596, "BSTAR": 0.00073452234, "MEAN_MOTION_DOT": 0.00030528, "MEAN_MOTION_DDOT": 0}, "tle": {"line1": "1 66498U 25263P   25349.35793206  .00030528  00000+0  73452-3 0  9990", "line2": "2 66498  43.0017 110.2368 0000930 267.6533  92.4217 15.40725968  5967"}}, "geometry": {"type": "Point", "coordinates": [133.343265641841, 22.581935050928763]}}, {"type": "Feature", "properties": {"norad_id": 66499, "name": "STARLINK-35816", "group": "last-30-days", "lat": 40.29635922731051, "lon": 172.24544742992555, "alt_km": 438.3938613060445, "timestamp": "2025-12-15T22:44:27.659191+00:00", "meta": {"OBJECT_NAME": "STARLINK-35816", "OBJECT_ID": "2025-263Q", "EPOCH": "2025-12-15T08:00:01.999872", "MEAN_MOTION": 15.40674055, "ECCENTRICITY": 0.00014405, "INCLINATION": 42.9997, "RA_OF_ASC_NODE": 110.2841, "ARG_OF_PERICENTER": 274.0974, "MEAN_ANOMALY": 346.8275, "EPHEMERIS_TYPE": 0, "CLASSIFICATION_TYPE": "U", "NORAD_CAT_ID": 66499, "ELEMENT_SET_NO": 999, "REV_AT_EPOCH": 605, "BSTAR": 0.0012392814, "MEAN_MOTION_DOT": 0.00051772, "MEAN_MOTION_DDOT": 0}, "tle": {"line1": "1 66499U 25263Q   25349.33335648  .00051772  00000+0  12393-2 0  9991", "line2": "2 66499  42.9997 110.2841 0001440 274.0974 346.8275 15.40674055  6058"}}, "geometry": {"type": "Point", "coordinates": [172.24544742992555, 40.29635922731051]}}, {"type": "Feature", "properties": {"norad_id": 66500, "name": "STARLINK-35894", "group": "last-30-days", "lat": -35.12921568608965, "lon": 58.0348159486215, "alt_km": 483.0921924882441, "timestamp": "2025-12-15T22:44:27.659202+00:00", "meta": {"OBJECT_NAME": "STARLINK-35894", "OBJECT_ID": "2025-263R", "EPOCH": "2025-12-15T08:00:01.999872", "MEAN_MOTION": 15.31127352, "ECCENTRICITY": 0.0001187, "INCLINATION": 43, "RA_OF_ASC_NODE": 110.5431, "ARG_OF_PERICENTER": 258.4724, "MEAN_ANOMALY": 257.7464, "EPHEMERIS_TYPE": 0, "CLASSIFICATION_TYPE": "U", "NORAD_CAT_ID": 66500, "ELEMENT_SET_NO": 999, "REV_AT_EPOCH": 605, "BSTAR": -0.07828866, "MEAN_MOTION_DOT": -0.02156453, "MEAN_MOTION_DDOT": 0}, "tle": {"line1": "1 66500U 25263R   25349.33335648 -.02156453  00000+0 -78289-1 0  9995", "line2": "2 66500  43.0000 110.5431 0001187 258.4724 257.7464 15.31127352  6056"}}, "geometry": {"type": "Point", "coordinates": [58.0348159486215, -35.12921568608965]}}, {"type": "Feature", "properties": {"norad_id": 66501, "name": "STARLINK-35897", "group": "last-30-days", "lat": 42.64129921644281, "lon": -154.51391663000456, "alt_km": 438.08095669865725, "timestamp": "2025-12-15T22:44:27.659212+00:00", "meta": {"OBJECT_NAME": "STARLINK-35897", "OBJECT_ID": "2025-263S", "EPOCH": "2025-12-15T08:00:01.999872", "MEAN_MOTION": 15.40672129, "ECCENTRICITY": 0.00013641, "INCLINATION": 43, "RA_OF_ASC_NODE": 110.2238, "ARG_OF_PERICENTER": 265.3285, "MEAN_ANOMALY": 20.4759, "EPHEMERIS_TYPE": 0, "CLASSIFICATION_TYPE": "U", "NORAD_CAT_ID": 66501, "ELEMENT_SET_NO": 999, "REV_AT_EPOCH": 605, "BSTAR": 0.001256596, "MEAN_MOTION_DOT": 0.00052501, "MEAN_MOTION_DDOT": 0}, "tle": {"line1": "1 66501U 25263S   25349.33335648  .00052501  00000+0  12566-2 0  9998", "line2": "2 66501  43.0000 110.2238 0001364 265.3285  20.4759 15.40672129  6054"}}, "geometry": {"type": "Point", "coordinates": [-154.51391663000456, 42.64129921644281]}}, {"type": "Feature", "properties": {"norad_id": 66502, "name": "STARLINK-35922", "group": "last-30-days", "lat": -39.10496993942267, "lon": -12.967145048267007, "alt_km": 416.31675977844316, "timestamp": "2025-12-15T22:44:27.659222+00:00", "meta": {"OBJECT_NAME": "STARLINK-35922", "OBJECT_ID": "2025-263T", "EPOCH": "2025-12-13T18:40:05.847744", "MEAN_MOTION": 15.50532408, "ECCENTRICITY": 0.00014149, "INCLINATION": 43.0006, "RA_OF_ASC_NODE": 119.0096, "ARG_OF_PERICENTER": 287.71, "MEAN_ANOMALY": 72.3606, "EPHEMERIS_TYPE": 0, "CLASSIFICATION_TYPE": "U", "NORAD_CAT_ID": 66502, "ELEMENT_SET_NO": 999, "REV_AT_EPOCH": 572, "BSTAR": 0.0020202122, "MEAN_MOTION_DOT": 0.00119805, "MEAN_MOTION_DDOT": 0}, "tle": {"line1": "1 66502U 25263T   25347.77784546  .00119805  00000+0  20202-2 0  9997", "line2": "2 66502  43.0006 119.0096 0001414 287.7100  72.3606 15.50532408  5726"}}, "geometry": {"type": "Point", "coordinates": [-12.967145048267007, -39.10496993942267]}}, {"type": "Feature", "properties": {"norad_id": 66503, "name": "STARLINK-35917", "group": "last-30-days", "lat": 29.41941779701486, "lon": -110.64780386890014, "alt_km": 439.9999777257717, "timestamp": "2025-12-15T22:44:27.659233+00:00", "meta": {"OBJECT_NAME": "STARLINK-35917", "OBJECT_ID": "2025-263U", "EPOCH": "2025-12-15T08:00:01.999872", "MEAN_MOTION": 15.4069165, "ECCENTRICITY": 0.00016167, "INCLINATION": 43.0003, "RA_OF_ASC_NODE": 110.1322, "ARG_OF_PERICENTER": 274.0015, "MEAN_ANOMALY": 49.1294, "EPHEMERIS_TYPE": 0, "CLASSIFICATION_TYPE": "U", "NORAD_CAT_ID": 66503, "ELEMENT_SET_NO": 999, "REV_AT_EPOCH": 605, "BSTAR": 0.0018233829, "MEAN_MOTION_DOT": 0.00076611, "MEAN_MOTION_DDOT": 0}, "tle": {"line1": "1 66503U 25263U   25349.33335648  .00076611  00000+0  18234-2 0  9996", "line2": "2 66503  43.0003 110.1322 0001616 274.0015  49.1294 15.40691650  6052"}}, "geometry": {"type": "Point", "coordinates": [-110.64780386890014, 29.41941779701486]}}, {"type": "Feature", "properties": {"norad_id": 66504, "name": "STARLINK-35916", "group": "last-30-days", "lat": -24.510406624364826, "lon": -42.555033811532915, "alt_km": 445.5231690248147, "timestamp": "2025-12-15T22:44:27.659243+00:00", "meta": {"OBJECT_NAME": "STARLINK-35916", "OBJECT_ID": "2025-263V", "EPOCH": "2025-12-15T09:21:17.941536", "MEAN_MOTION": 15.40735767, "ECCENTRICITY": 0.00016805, "INCLINATION": 42.9995, "RA_OF_ASC_NODE": 111.3657, "ARG_OF_PERICENTER": 270.1602, "MEAN_ANOMALY": 89.9062, "EPHEMERIS_TYPE": 0, "CLASSIFICATION_TYPE": "U", "NORAD_CAT_ID": 66504, "ELEMENT_SET_NO": 999, "REV_AT_EPOCH": 595, "BSTAR": 0.00074093746, "MEAN_MOTION_DOT": 0.00030809, "MEAN_MOTION_DDOT": 0}, "tle": {"line1": "1 66504U 25263V   25349.38979099  .00030809  00000+0  74094-3 0  9992", "line2": "2 66504  42.9995 111.3657 0001680 270.1602  89.9062 15.40735767  5956"}}, "geometry": {"type": "Point", "coordinates": [-42.555033811532915, -24.510406624364826]}}, {"type": "Feature", "properties": {"norad_id": 66505, "name": "STARLINK-34766", "group": "last-30-days", "lat": -4.3407450296879775, "lon": -68.8645817001822, "alt_km": 441.1594121805956, "timestamp": "2025-12-15T22:44:27.659253+00:00", "meta": {"OBJECT_NAME": "STARLINK-34766", "OBJECT_ID": "2025-263W", "EPOCH": "2025-12-15T04:50:05.906400", "MEAN_MOTION": 15.42103885, "ECCENTRICITY": 0.00021329, "INCLINATION": 42.9993, "RA_OF_ASC_NODE": 110.7711, "ARG_OF_PERICENTER": 255.0077, "MEAN_ANOMALY": 105.0544, "EPHEMERIS_TYPE": 0, "CLASSIFICATION_TYPE": "U", "NORAD_CAT_ID": 66505, "ELEMENT_SET_NO": 999, "REV_AT_EPOCH": 594, "BSTAR": -0.0071431578, "MEAN_MOTION_DOT": -0.00301061, "MEAN_MOTION_DDOT": 0}, "tle": {"line1": "1 66505U 25263W   25349.20145725 -.00301061  00000+0 -71432-2 0  9990", "line2": "2 66505  42.9993 110.7711 0002132 255.0077 105.0544 15.42103885  5946"}}, "geometry": {"type": "Point", "coordinates": [-68.8645817001822, -4.3407450296879775]}}]}